ONEWEB-0163             
1 48061U 21025V   24040.29841223  .00000157  00000+0  39371-3 0  9998
2 48061  87.9001 131.1990 0001459 103.4793 256.6498 13.13471616140936
ONEWEB-0159             
1 48062U 21025W   24040.28729691 -.00000099  00000+0 -30677-3 0  9999
2 48062  87.9000 131.1861 0001559 110.9373 249.1923 13.13471922140852
ONEWEB-0167             
1 48064U 21025Y   24040.60392121  .00000065  00000+0  14405-3 0  9993
2 48064  87.9002 131.1430 0001555 105.1181 255.0120 13.13469761140861
ONEWEB-0166             
1 48065U 21025Z   24040.32063174  .00000390  00000+0  10325-2 0  9993
2 48065  87.8997 131.1876 0001669 113.9134 246.2170 13.13470451140909
ONEWEB-0151             
1 48066U 21025AA  24040.32222322  .00000365  00000+0  96369-3 0  9991
2 48066  87.9000 131.1974 0001936 100.6058 259.5290 13.13470600140849
